{
  "type": "FeatureCollection",
  "features": [
    {
      "type": "Feature",
      "properties": {
        "norad_id": 57400,
        "name": "TIANMU-1 08",
        "group": "weather",
        "lat": 68.89864787339329,
        "lon": 12.251626204424763,
        "alt_km": 470.6457553404334,
        "timestamp": "2025-12-07T20:38:13.723617+00:00",
        "meta_object_name": "TIANMU-1 08",
        "meta_object_id": "2023-101B",
        "meta_epoch": "2025-12-07T06:11:08.552832",
        "meta_mean_motion": 15.27938086,
        "meta_eccentricity": 0.00075575,
        "meta_inclination": 97.2867,
        "meta_ra_of_asc_node": 31.0279,
        "meta_arg_of_pericenter": 99.1458,
        "meta_mean_anomaly": 261.0637,
        "meta_ephemeris_type": 0,
        "meta_classification_type": "U",
        "meta_norad_cat_id": 57400,
        "meta_element_set_no": 999,
        "meta_rev_at_epoch": 13231,
        "meta_bstar": 0.00038957822,
        "meta_mean_motion_dot": 0.00010562,
        "meta_mean_motion_ddot": 0,
        "tle_line1": "1 57400U 23101B   25341.25773788  .00010562  00000+0  38958-3 0  9994",
        "tle_line2": "2 57400  97.2867  31.0279 0007557  99.1458 261.0637 15.27938086132313"
      },
      "geometry": {
        "type": "Point",
        "coordinates": [
          12.251626204424763,
          68.89864787339329
        ]
      }
    },
    {
      "type": "Feature",
      "properties": {
        "norad_id": 57401,
        "name": "TIANMU-1 09",
        "group": "weather",
        "lat": 37.11877383011193,
        "lon": -143.31353551459554,
        "alt_km": 476.0341944197844,
        "timestamp": "2025-12-07T20:38:13.723627+00:00",
        "meta_object_name": "TIANMU-1 09",
        "meta_object_id": "2023-101C",
        "meta_epoch": "2025-12-07T05:52:15.149856",
        "meta_mean_motion": 15.27962965,
        "meta_eccentricity": 0.00068022,
        "meta_inclination": 97.2823,
        "meta_ra_of_asc_node": 30.5315,
        "meta_arg_of_pericenter": 98.7343,
        "meta_mean_anomaly": 261.4668,
        "meta_ephemeris_type": 0,
        "meta_classification_type": "U",
        "meta_norad_cat_id": 57401,
        "meta_element_set_no": 999,
        "meta_rev_at_epoch": 13231,
        "meta_bstar": 0.00040270883,
        "meta_mean_motion_dot": 0.00010927,
        "meta_mean_motion_ddot": 0,
        "tle_line1": "1 57401U 23101C   25341.24461979  .00010927  00000+0  40271-3 0  9996",
        "tle_line2": "2 57401  97.2823  30.5315 0006802  98.7343 261.4668 15.27962965132312"
      },
      "geometry": {
        "type": "Point",
        "coordinates": [
          -143.31353551459554,
          37.11877383011193
        ]
      }
    },
    {
      "type": "Feature",
      "properties": {
        "norad_id": 57402,
        "name": "TIANMU-1 10",
        "group": "weather",
        "lat": -45.21657118656689,
        "lon": 39.38877932777916,
        "alt_km": 493.3705111352965,
        "timestamp": "2025-12-07T20:38:13.723636+00:00",
        "meta_object_name": "TIANMU-1 10",
        "meta_object_id": "2023-101D",
        "meta_epoch": "2025-12-07T06:41:28.745952",
        "meta_mean_motion": 15.27955208,
        "meta_eccentricity": 0.00085707,
        "meta_inclination": 97.2904,
        "meta_ra_of_asc_node": 31.4089,
        "meta_arg_of_pericenter": 99.2803,
        "meta_mean_anomaly": 260.9406,
        "meta_ephemeris_type": 0,
        "meta_classification_type": "U",
        "meta_norad_cat_id": 57402,
        "meta_element_set_no": 999,
        "meta_rev_at_epoch": 13231,
        "meta_bstar": 0.00042923581,
        "meta_mean_motion_dot": 0.00011655,
        "meta_mean_motion_ddot": 0,
        "tle_line1": "1 57402U 23101D   25341.27880493  .00011655  00000+0  42924-3 0  9992",
        "tle_line2": "2 57402  97.2904  31.4089 0008570  99.2803 260.9406 15.27955208132318"
      },
      "geometry": {
        "type": "Point",
        "coordinates": [
          39.38877932777916,
          -45.21657118656689
        ]
      }
    },
    {
      "type": "Feature",
      "properties": {
        "norad_id": 57490,
        "name": "FENGYUN 3F",
        "group": "weather",
        "lat": -48.943255514179754,
        "lon": 60.36755149929278,
        "alt_km": 832.9052717729146,
        "timestamp": "2025-12-07T20:38:13.723646+00:00",
        "meta_object_name": "FENGYUN 3F",
        "meta_object_id": "2023-111A",
        "meta_epoch": "2025-12-07T05:38:59.590752",
        "meta_mean_motion": 14.19891454,
        "meta_eccentricity": 6.661e-05,
        "meta_inclination": 98.7092,
        "meta_ra_of_asc_node": 49.6175,
        "meta_arg_of_pericenter": 91.4991,
        "meta_mean_anomaly": 268.6262,
        "meta_ephemeris_type": 0,
        "meta_classification_type": "U",
        "meta_norad_cat_id": 57490,
        "meta_element_set_no": 999,
        "meta_rev_at_epoch": 12162,
        "meta_bstar": 0.00011935179,
        "meta_mean_motion_dot": 2.1e-06,
        "meta_mean_motion_ddot": 0,
        "tle_line1": "1 57490U 23111A   25341.23541193  .00000210  00000+0  11935-3 0  9990",
        "tle_line2": "2 57490  98.7092  49.6175 0000666  91.4991 268.6262 14.19891454121625"
      },
      "geometry": {
        "type": "Point",
        "coordinates": [
          60.36755149929278,
          -48.943255514179754
        ]
      }
    },
    {
      "type": "Feature",
      "properties": {
        "norad_id": 58584,
        "name": "ARKTIKA-M 2",
        "group": "weather",
        "lat": 19.279333797035143,
        "lon": -174.4036415600935,
        "alt_km": 12999.958133563217,
        "timestamp": "2025-12-07T20:38:13.723658+00:00",
        "meta_object_name": "ARKTIKA-M 2",
        "meta_object_id": "2023-198A",
        "meta_epoch": "2025-12-06T20:18:59.579424",
        "meta_mean_motion": 2.00604738,
        "meta_eccentricity": 0.68644701,
        "meta_inclination": 63.2244,
        "meta_ra_of_asc_node": 175.5329,
        "meta_arg_of_pericenter": 268.127,
        "meta_mean_anomaly": 18.8311,
        "meta_ephemeris_type": 0,
        "meta_classification_type": "U",
        "meta_norad_cat_id": 58584,
        "meta_element_set_no": 999,
        "meta_rev_at_epoch": 1446,
        "meta_bstar": 0,
        "meta_mean_motion_dot": 1.78e-06,
        "meta_mean_motion_ddot": 0,
        "tle_line1": "1 58584U 23198A   25340.84652291  .00000178  00000+0  00000+0 0  9998",
        "tle_line2": "2 58584  63.2244 175.5329 6864470 268.1270  18.8311  2.00604738 14463"
      },
      "geometry": {
        "type": "Point",
        "coordinates": [
          -174.4036415600935,
          19.279333797035143
        ]
      }
    },
    {
      "type": "Feature",
      "properties": {
        "norad_id": 58645,
        "name": "TIANMU-1 11",
        "group": "weather",
        "lat": -14.281547865284905,
        "lon": 179.6834743252797,
        "alt_km": 501.1610288829852,
        "timestamp": "2025-12-07T20:38:13.723670+00:00",
        "meta_object_name": "TIANMU-1 11",
        "meta_object_id": "2023-205A",
        "meta_epoch": "2025-12-07T07:11:05.016768",
        "meta_mean_motion": 15.24500632,
        "meta_eccentricity": 0.00084181,
        "meta_inclination": 97.3604,
        "meta_ra_of_asc_node": 1.0185,
        "meta_arg_of_pericenter": 332.2497,
        "meta_mean_anomaly": 27.829,
        "meta_ephemeris_type": 0,
        "meta_classification_type": "U",
        "meta_norad_cat_id": 58645,
        "meta_element_set_no": 999,
        "meta_rev_at_epoch": 10826,
        "meta_bstar": 0.00037953704,
        "meta_mean_motion_dot": 9.272e-05,
        "meta_mean_motion_ddot": 0,
        "tle_line1": "1 58645U 23205A   25341.29936362  .00009272  00000+0  37954-3 0  9995",
        "tle_line2": "2 58645  97.3604   1.0185 0008418 332.2497  27.8290 15.24500632108268"
      },
      "geometry": {
        "type": "Point",
        "coordinates": [
          179.6834743252797,
          -14.281547865284905
        ]
      }
    },
    {
      "type": "Feature",
      "properties": {
        "norad_id": 58646,
        "name": "TIANMU-1 12",
        "group": "weather",
        "lat": 48.092237175502056,
        "lon": -6.903303015534888,
        "alt_km": 488.5613846452288,
        "timestamp": "2025-12-07T20:38:13.723681+00:00",
        "meta_object_name": "TIANMU-1 12",
        "meta_object_id": "2023-205B",
        "meta_epoch": "2025-12-07T06:14:46.523616",
        "meta_mean_motion": 15.24415907,
        "meta_eccentricity": 0.00062541,
        "meta_inclination": 97.3591,
        "meta_ra_of_asc_node": 0.7874,
        "meta_arg_of_pericenter": 316.7947,
        "meta_mean_anomaly": 43.28,
        "meta_ephemeris_type": 0,
        "meta_classification_type": "U",
        "meta_norad_cat_id": 58646,
        "meta_element_set_no": 999,
        "meta_rev_at_epoch": 10824,
        "meta_bstar": 0.00040919586,
        "meta_mean_motion_dot": 9.973e-05,
        "meta_mean_motion_ddot": 0,
        "tle_line1": "1 58646U 23205B   25341.26026069  .00009973  00000+0  40920-3 0  9992",
        "tle_line2": "2 58646  97.3591   0.7874 0006254 316.7947  43.2800 15.24415907108245"
      },
      "geometry": {
        "type": "Point",
        "coordinates": [
          -6.903303015534888,
          48.092237175502056
        ]
      }
    }
  ]
}